GLOBALSTAR M035         
1 25851U 99037A   25282.08181395 -.00000056  00000+0  27877-3 0  9998
2 25851  51.9926 160.9698 0013405 161.9195 346.6489 11.04540064108845
GLOBALSTAR M032         
1 25852U 99037B   25282.13019433 -.00000071  00000+0 -12484-3 0  9994
2 25852  51.9986 338.2014 0012228 359.3308   0.7474 11.19063057147545
GLOBALSTAR M051         
1 25853U 99037C   25281.99613214 -.00000072  00000+0  27031-5 0  9991
2 25853  51.9765 126.3406 0001465  74.2632 285.8340 11.42205218145398
GLOBALSTAR M030         
1 25854U 99037D   25282.13617897 -.00000086  00000+0 -23221-3 0  9991
2 25854  51.9873 284.8644 0003001 252.8979 107.1509 11.55114901163215
GLOBALSTAR M048         
1 25872U 99041A   25282.12986862 -.00000091  00000+0 -56876-3 0  9994
2 25872  51.9371  65.4539 0013513  26.1502 144.2786 11.33859374137909
GLOBALSTAR M026         
1 25873U 99041B   25282.02313894 -.00000120  00000+0 -20619-2 0  9991
2 25873  52.0003 277.8603 0001831  95.9657 298.1793 11.06852309161095
GLOBALSTAR M043         
1 25874U 99041C   25282.12750509 -.00000029  00000+0  11724-2 0  9995
2 25874  51.9382 177.6480 0013438 141.9267  13.4842 11.25694111135707
GLOBALSTAR M028         
1 25875U 99041D   25282.12452925 -.00000079  00000+0  13393-3 0  9997
2 25875  51.9615 213.3226 0063256 319.4872  40.1290 12.50589311204435
